KUIPER-00136            
1 65962U 25228R   26008.16668980  .00026734  00000+0  23818-2 0  9992
2 65962  51.8933 256.6558 0006189 142.1146 327.7439 14.95820834  4091
KUIPER-00137            
1 65963U 25228S   26008.16668980 -.00008923  00000+0 -57873-3 0  9994
2 65963  51.8911 255.1035 0004352 121.8978 148.5510 15.06493141  4627
KUIPER-00138            
1 65964U 25228T   26008.16668980 -.01101937  00000+0 -59605-1 0  9998
2 65964  51.8893 254.0493 0008000 133.0663 287.1371 15.16899867  5502
KUIPER-00140            
1 65965U 25228U   26008.16668980 -.01086135  00000+0 -77841-1 0  9993
2 65965  51.8878 255.3864 0006698 121.4346 288.3300 15.06830328  5053
KUIPER-00141            
1 65966U 25228V   26008.16668980 -.00991129  00000+0 -45670-1 0  9996
2 65966  51.8832 253.2234 0002951 163.4910 257.6241 15.22583360  5606
KUIPER-00146            
1 65967U 25228W   26008.16668980  .00036908  00000+0  20616-2 0  9994
2 65967  51.8888 254.0065 0005118 137.2975 246.7093 15.13159817  5304
KUIPER-00149            
1 65968U 25228X   26008.16668980 -.00079862  00000+0 -24010-2 0  9995
2 65968  51.8779 252.8717 0005220 125.7864 145.4959 15.34044950  4294
KUIPER-00154            
1 65969U 25228Y   26008.05445317  .00025599  00000+0  70944-3 0  9995
2 65969  51.8767 253.4292 0006558 103.9419 256.2298 15.36770795 14468
