<?xml version="1.0" encoding="UTF-8"?>
<ndm xmlns:xsi="http://www.w3.org/2001/XMLSchema-instance" xsi:noNamespaceSchemaLocation="https://sanaregistry.org/r/ndmxml_unqualified/ndmxml-2.0.0-master-2.0.xsd">
<omm id="CCSDS_OMM_VERS" version="2.0">
<header><CREATION_DATE/><ORIGINATOR/></header><body><segment><metadata><OBJECT_NAME>KUIPER-00136</OBJECT_NAME><OBJECT_ID>2025-228R</OBJECT_ID><CENTER_NAME>EARTH</CENTER_NAME><REF_FRAME>TEME</REF_FRAME><TIME_SYSTEM>UTC</TIME_SYSTEM><MEAN_ELEMENT_THEORY>SGP4</MEAN_ELEMENT_THEORY></metadata><data><meanElements><EPOCH>2026-01-08T04:00:01.998720</EPOCH><MEAN_MOTION>14.95820834</MEAN_MOTION><ECCENTRICITY>.0006189</ECCENTRICITY><INCLINATION>51.8933</INCLINATION><RA_OF_ASC_NODE>256.6558</RA_OF_ASC_NODE><ARG_OF_PERICENTER>142.1146</ARG_OF_PERICENTER><MEAN_ANOMALY>327.7439</MEAN_ANOMALY></meanElements><tleParameters><EPHEMERIS_TYPE>0</EPHEMERIS_TYPE><CLASSIFICATION_TYPE>U</CLASSIFICATION_TYPE><NORAD_CAT_ID>65962</NORAD_CAT_ID><ELEMENT_SET_NO>999</ELEMENT_SET_NO><REV_AT_EPOCH>409</REV_AT_EPOCH><BSTAR>.23818E-2</BSTAR><MEAN_MOTION_DOT>.26734E-3</MEAN_MOTION_DOT><MEAN_MOTION_DDOT>0</MEAN_MOTION_DDOT></tleParameters></data></segment></body></omm>
<omm id="CCSDS_OMM_VERS" version="2.0">
<header><CREATION_DATE/><ORIGINATOR/></header><body><segment><metadata><OBJECT_NAME>KUIPER-00137</OBJECT_NAME><OBJECT_ID>2025-228S</OBJECT_ID><CENTER_NAME>EARTH</CENTER_NAME><REF_FRAME>TEME</REF_FRAME><TIME_SYSTEM>UTC</TIME_SYSTEM><MEAN_ELEMENT_THEORY>SGP4</MEAN_ELEMENT_THEORY></metadata><data><meanElements><EPOCH>2026-01-08T04:00:01.998720</EPOCH><MEAN_MOTION>15.06493141</MEAN_MOTION><ECCENTRICITY>.0004352</ECCENTRICITY><INCLINATION>51.8911</INCLINATION><RA_OF_ASC_NODE>255.1035</RA_OF_ASC_NODE><ARG_OF_PERICENTER>121.8978</ARG_OF_PERICENTER><MEAN_ANOMALY>148.5510</MEAN_ANOMALY></meanElements><tleParameters><EPHEMERIS_TYPE>0</EPHEMERIS_TYPE><CLASSIFICATION_TYPE>U</CLASSIFICATION_TYPE><NORAD_CAT_ID>65963</NORAD_CAT_ID><ELEMENT_SET_NO>999</ELEMENT_SET_NO><REV_AT_EPOCH>462</REV_AT_EPOCH><BSTAR>-.57873E-3</BSTAR><MEAN_MOTION_DOT>-.8923E-4</MEAN_MOTION_DOT><MEAN_MOTION_DDOT>0</MEAN_MOTION_DDOT></tleParameters></data></segment></body></omm>
<omm id="CCSDS_OMM_VERS" version="2.0">
<header><CREATION_DATE/><ORIGINATOR/></header><body><segment><metadata><OBJECT_NAME>KUIPER-00138</OBJECT_NAME><OBJECT_ID>2025-228T</OBJECT_ID><CENTER_NAME>EARTH</CENTER_NAME><REF_FRAME>TEME</REF_FRAME><TIME_SYSTEM>UTC</TIME_SYSTEM><MEAN_ELEMENT_THEORY>SGP4</MEAN_ELEMENT_THEORY></metadata><data><meanElements><EPOCH>2026-01-08T04:00:01.998720</EPOCH><MEAN_MOTION>15.16899867</MEAN_MOTION><ECCENTRICITY>.0008</ECCENTRICITY><INCLINATION>51.8893</INCLINATION><RA_OF_ASC_NODE>254.0493</RA_OF_ASC_NODE><ARG_OF_PERICENTER>133.0663</ARG_OF_PERICENTER><MEAN_ANOMALY>287.1371</MEAN_ANOMALY></meanElements><tleParameters><EPHEMERIS_TYPE>0</EPHEMERIS_TYPE><CLASSIFICATION_TYPE>U</CLASSIFICATION_TYPE><NORAD_CAT_ID>65964</NORAD_CAT_ID><ELEMENT_SET_NO>999</ELEMENT_SET_NO><REV_AT_EPOCH>550</REV_AT_EPOCH><BSTAR>-.59605E-1</BSTAR><MEAN_MOTION_DOT>-.1101937E-1</MEAN_MOTION_DOT><MEAN_MOTION_DDOT>0</MEAN_MOTION_DDOT></tleParameters></data></segment></body></omm>
<omm id="CCSDS_OMM_VERS" version="2.0">
<header><CREATION_DATE/><ORIGINATOR/></header><body><segment><metadata><OBJECT_NAME>KUIPER-00140</OBJECT_NAME><OBJECT_ID>2025-228U</OBJECT_ID><CENTER_NAME>EARTH</CENTER_NAME><REF_FRAME>TEME</REF_FRAME><TIME_SYSTEM>UTC</TIME_SYSTEM><MEAN_ELEMENT_THEORY>SGP4</MEAN_ELEMENT_THEORY></metadata><data><meanElements><EPOCH>2026-01-08T04:00:01.998720</EPOCH><MEAN_MOTION>15.06830328</MEAN_MOTION><ECCENTRICITY>.0006698</ECCENTRICITY><INCLINATION>51.8878</INCLINATION><RA_OF_ASC_NODE>255.3864</RA_OF_ASC_NODE><ARG_OF_PERICENTER>121.4346</ARG_OF_PERICENTER><MEAN_ANOMALY>288.3300</MEAN_ANOMALY></meanElements><tleParameters><EPHEMERIS_TYPE>0</EPHEMERIS_TYPE><CLASSIFICATION_TYPE>U</CLASSIFICATION_TYPE><NORAD_CAT_ID>65965</NORAD_CAT_ID><ELEMENT_SET_NO>999</ELEMENT_SET_NO><REV_AT_EPOCH>505</REV_AT_EPOCH><BSTAR>-.77841E-1</BSTAR><MEAN_MOTION_DOT>-.1086135E-1</MEAN_MOTION_DOT><MEAN_MOTION_DDOT>0</MEAN_MOTION_DDOT></tleParameters></data></segment></body></omm>
<omm id="CCSDS_OMM_VERS" version="2.0">
<header><CREATION_DATE/><ORIGINATOR/></header><body><segment><metadata><OBJECT_NAME>KUIPER-00141</OBJECT_NAME><OBJECT_ID>2025-228V</OBJECT_ID><CENTER_NAME>EARTH</CENTER_NAME><REF_FRAME>TEME</REF_FRAME><TIME_SYSTEM>UTC</TIME_SYSTEM><MEAN_ELEMENT_THEORY>SGP4</MEAN_ELEMENT_THEORY></metadata><data><meanElements><EPOCH>2026-01-08T04:00:01.998720</EPOCH><MEAN_MOTION>15.22583360</MEAN_MOTION><ECCENTRICITY>.0002951</ECCENTRICITY><INCLINATION>51.8832</INCLINATION><RA_OF_ASC_NODE>253.2234</RA_OF_ASC_NODE><ARG_OF_PERICENTER>163.4910</ARG_OF_PERICENTER><MEAN_ANOMALY>257.6241</MEAN_ANOMALY></meanElements><tleParameters><EPHEMERIS_TYPE>0</EPHEMERIS_TYPE><CLASSIFICATION_TYPE>U</CLASSIFICATION_TYPE><NORAD_CAT_ID>65966</NORAD_CAT_ID><ELEMENT_SET_NO>999</ELEMENT_SET_NO><REV_AT_EPOCH>560</REV_AT_EPOCH><BSTAR>-.4567E-1</BSTAR><MEAN_MOTION_DOT>-.991129E-2</MEAN_MOTION_DOT><MEAN_MOTION_DDOT>0</MEAN_MOTION_DDOT></tleParameters></data></segment></body></omm>
<omm id="CCSDS_OMM_VERS" version="2.0">
<header><CREATION_DATE/><ORIGINATOR/></header><body><segment><metadata><OBJECT_NAME>KUIPER-00146</OBJECT_NAME><OBJECT_ID>2025-228W</OBJECT_ID><CENTER_NAME>EARTH</CENTER_NAME><REF_FRAME>TEME</REF_FRAME><TIME_SYSTEM>UTC</TIME_SYSTEM><MEAN_ELEMENT_THEORY>SGP4</MEAN_ELEMENT_THEORY></metadata><data><meanElements><EPOCH>2026-01-08T04:00:01.998720</EPOCH><MEAN_MOTION>15.13159817</MEAN_MOTION><ECCENTRICITY>.0005118</ECCENTRICITY><INCLINATION>51.8888</INCLINATION><RA_OF_ASC_NODE>254.0065</RA_OF_ASC_NODE><ARG_OF_PERICENTER>137.2975</ARG_OF_PERICENTER><MEAN_ANOMALY>246.7093</MEAN_ANOMALY></meanElements><tleParameters><EPHEMERIS_TYPE>0</EPHEMERIS_TYPE><CLASSIFICATION_TYPE>U</CLASSIFICATION_TYPE><NORAD_CAT_ID>65967</NORAD_CAT_ID><ELEMENT_SET_NO>999</ELEMENT_SET_NO><REV_AT_EPOCH>530</REV_AT_EPOCH><BSTAR>.20616E-2</BSTAR><MEAN_MOTION_DOT>.36908E-3</MEAN_MOTION_DOT><MEAN_MOTION_DDOT>0</MEAN_MOTION_DDOT></tleParameters></data></segment></body></omm>
<omm id="CCSDS_OMM_VERS" version="2.0">
<header><CREATION_DATE/><ORIGINATOR/></header><body><segment><metadata><OBJECT_NAME>KUIPER-00149</OBJECT_NAME><OBJECT_ID>2025-228X</OBJECT_ID><CENTER_NAME>EARTH</CENTER_NAME><REF_FRAME>TEME</REF_FRAME><TIME_SYSTEM>UTC</TIME_SYSTEM><MEAN_ELEMENT_THEORY>SGP4</MEAN_ELEMENT_THEORY></metadata><data><meanElements><EPOCH>2026-01-08T04:00:01.998720</EPOCH><MEAN_MOTION>15.34044950</MEAN_MOTION><ECCENTRICITY>.000522</ECCENTRICITY><INCLINATION>51.8779</INCLINATION><RA_OF_ASC_NODE>252.8717</RA_OF_ASC_NODE><ARG_OF_PERICENTER>125.7864</ARG_OF_PERICENTER><MEAN_ANOMALY>145.4959</MEAN_ANOMALY></meanElements><tleParameters><EPHEMERIS_TYPE>0</EPHEMERIS_TYPE><CLASSIFICATION_TYPE>U</CLASSIFICATION_TYPE><NORAD_CAT_ID>65968</NORAD_CAT_ID><ELEMENT_SET_NO>999</ELEMENT_SET_NO><REV_AT_EPOCH>429</REV_AT_EPOCH><BSTAR>-.2401E-2</BSTAR><MEAN_MOTION_DOT>-.79862E-3</MEAN_MOTION_DOT><MEAN_MOTION_DDOT>0</MEAN_MOTION_DDOT></tleParameters></data></segment></body></omm>
<omm id="CCSDS_OMM_VERS" version="2.0">
<header><CREATION_DATE/><ORIGINATOR/></header><body><segment><metadata><OBJECT_NAME>KUIPER-00154</OBJECT_NAME><OBJECT_ID>2025-228Y</OBJECT_ID><CENTER_NAME>EARTH</CENTER_NAME><REF_FRAME>TEME</REF_FRAME><TIME_SYSTEM>UTC</TIME_SYSTEM><MEAN_ELEMENT_THEORY>SGP4</MEAN_ELEMENT_THEORY></metadata><data><meanElements><EPOCH>2026-01-08T01:18:24.753888</EPOCH><MEAN_MOTION>15.36770795</MEAN_MOTION><ECCENTRICITY>.0006558</ECCENTRICITY><INCLINATION>51.8767</INCLINATION><RA_OF_ASC_NODE>253.4292</RA_OF_ASC_NODE><ARG_OF_PERICENTER>103.9419</ARG_OF_PERICENTER><MEAN_ANOMALY>256.2298</MEAN_ANOMALY></meanElements><tleParameters><EPHEMERIS_TYPE>0</EPHEMERIS_TYPE><CLASSIFICATION_TYPE>U</CLASSIFICATION_TYPE><NORAD_CAT_ID>65969</NORAD_CAT_ID><ELEMENT_SET_NO>999</ELEMENT_SET_NO><REV_AT_EPOCH>1446</REV_AT_EPOCH><BSTAR>.70944E-3</BSTAR><MEAN_MOTION_DOT>.25599E-3</MEAN_MOTION_DOT><MEAN_MOTION_DDOT>0</MEAN_MOTION_DDOT></tleParameters></data></segment></body></omm>

</ndm>
